{"type": "FeatureCollection", "features": [ {"type": "Feature", "properties": {"norad_id": 40938, "name": "BEIDOU-3S IGSO-2S (C56)", "group": "gnss", "lat": 2.245184777797933, "lon": -97.09791225383216, "alt_km": 36043.268104601055, "timestamp": "2025-12-13T05:42:57.799649+00:00", "meta": {"OBJECT_NAME": "BEIDOU-3S IGSO-2S (C56)", "OBJECT_ID": "2015-053A", "EPOCH": "2025-12-11T20:42:15.107040", "MEAN_MOTION": 1.00269874, "ECCENTRICITY": 0.00609594, "INCLINATION": 49.5118, "RA_OF_ASC_NODE": 261.0153, "ARG_OF_PERICENTER": 188.7908, "MEAN_ANOMALY": 37.5981, "EPHEMERIS_TYPE": 0, "CLASSIFICATION_TYPE": "U", "NORAD_CAT_ID": 40938, "ELEMENT_SET_NO": 999, "REV_AT_EPOCH": 3747, "BSTAR": 0, "MEAN_MOTION_DOT": -1.57e-06, "MEAN_MOTION_DDOT": 0}, "tle": {"line1": "1 40938U 15053A   25345.86267485 -.00000157  00000+0  00000+0 0  9995", "line2": "2 40938  49.5118 261.0153 0060959 188.7908  37.5981  1.00269874 37473"}}, "geometry": {"type": "Point", "coordinates": [-97.09791225383216, 2.245184777797933]}}, {"type": "Feature", "properties": {"norad_id": 41019, "name": "GPS BIIF-11 (PRN 10)", "group": "gnss", "lat": -40.235790406214946, "lon": 4.432255983692147, "alt_km": 20130.27417457878, "timestamp": "2025-12-13T05:42:57.799661+00:00", "meta": {"OBJECT_NAME": "GPS BIIF-11 (PRN 10)", "OBJECT_ID": "2015-062A", "EPOCH": "2025-12-11T07:32:26.435904", "MEAN_MOTION": 2.00567124, "ECCENTRICITY": 0.01107874, "INCLINATION": 56.8311, "RA_OF_ASC_NODE": 38.0574, "ARG_OF_PERICENTER": 229.9047, "MEAN_ANOMALY": 129.1688, "EPHEMERIS_TYPE": 0, "CLASSIFICATION_TYPE": "U", "NORAD_CAT_ID": 41019, "ELEMENT_SET_NO": 999, "REV_AT_EPOCH": 7406, "BSTAR": 0, "MEAN_MOTION_DOT": -9.3e-07, "MEAN_MOTION_DDOT": 0}, "tle": {"line1": "1 41019U 15062A   25345.31419486 -.00000093  00000+0  00000+0 0  9995", "line2": "2 41019  56.8311  38.0574 0110787 229.9047 129.1688  2.00567124 74064"}}, "geometry": {"type": "Point", "coordinates": [4.432255983692147, -40.235790406214946]}}, {"type": "Feature", "properties": {"norad_id": 41028, "name": "GSAT-15 (GAGAN/PRN 139)", "group": "gnss", "lat": -0.01896125777491851, "lon": -98.57443461870749, "alt_km": 35775.56947559664, "timestamp": "2025-12-13T05:42:57.799675+00:00", "meta": {"OBJECT_NAME": "GSAT-15 (GAGAN/PRN 139)", "OBJECT_ID": "2015-065A", "EPOCH": "2025-12-12T03:38:58.543872", "MEAN_MOTION": 1.00272101, "ECCENTRICITY": 0.00029406, "INCLINATION": 0.0469, "RA_OF_ASC_NODE": 266.1092, "ARG_OF_PERICENTER": 323.0393, "MEAN_ANOMALY": 0.1982, "EPHEMERIS_TYPE": 0, "CLASSIFICATION_TYPE": "U", "NORAD_CAT_ID": 41028, "ELEMENT_SET_NO": 999, "REV_AT_EPOCH": 3692, "BSTAR": 0, "MEAN_MOTION_DOT": -2.48e-06, "MEAN_MOTION_DDOT": 0}, "tle": {"line1": "1 41028U 15065A   25346.15206648 -.00000248  00000+0  00000+0 0  9997", "line2": "2 41028   0.0469 266.1092 0002940 323.0393   0.1982  1.00272101 36924"}}, "geometry": {"type": "Point", "coordinates": [-98.57443461870749, -0.01896125777491851]}}, {"type": "Feature", "properties": {"norad_id": 41174, "name": "GSAT0209 (GALILEO 12)", "group": "gnss", "lat": 55.71924809104812, "lon": -163.78697682177426, "alt_km": 23216.776249479648, "timestamp": "2025-12-13T05:42:57.799688+00:00", "meta": {"OBJECT_NAME": "GSAT0209 (GALILEO 12)", "OBJECT_ID": "2015-079A", "EPOCH": "2025-12-10T17:53:22.611840", "MEAN_MOTION": 1.70474458, "ECCENTRICITY": 0.00024095, "INCLINATION": 55.7117, "RA_OF_ASC_NODE": 106.4357, "ARG_OF_PERICENTER": 351.4479, "MEAN_ANOMALY": 8.5179, "EPHEMERIS_TYPE": 0, "CLASSIFICATION_TYPE": "U", "NORAD_CAT_ID": 41174, "ELEMENT_SET_NO": 999, "REV_AT_EPOCH": 6156, "BSTAR": 0, "MEAN_MOTION_DOT": 1.1e-07, "MEAN_MOTION_DDOT": 0}, "tle": {"line1": "1 41174U 15079A   25344.74540060  .00000011  00000+0  00000+0 0  9993", "line2": "2 41174  55.7117 106.4357 0002409 351.4479   8.5179  1.70474458 61567"}}, "geometry": {"type": "Point", "coordinates": [-163.78697682177426, 55.71924809104812]}}, {"type": "Feature", "properties": {"norad_id": 41175, "name": "GSAT0208 (GALILEO 11)", "group": "gnss", "lat": -35.93495287883114, "lon": 76.74186999367025, "alt_km": 23222.91281197911, "timestamp": "2025-12-13T05:42:57.799699+00:00", "meta": {"OBJECT_NAME": "GSAT0208 (GALILEO 11)", "OBJECT_ID": "2015-079B", "EPOCH": "2025-12-08T14:51:40.201056", "MEAN_MOTION": 1.70474231, "ECCENTRICITY": 0.0001859, "INCLINATION": 55.7088, "RA_OF_ASC_NODE": 106.4912, "ARG_OF_PERICENTER": 3.1611, "MEAN_ANOMALY": 356.8026, "EPHEMERIS_TYPE": 0, "CLASSIFICATION_TYPE": "U", "NORAD_CAT_ID": 41175, "ELEMENT_SET_NO": 999, "REV_AT_EPOCH": 6194, "BSTAR": 0, "MEAN_MOTION_DOT": 1e-07, "MEAN_MOTION_DDOT": 0}, "tle": {"line1": "1 41175U 15079B   25342.61921529  .00000010  00000+0  00000+0 0  9990", "line2": "2 41175  55.7088 106.4912 0001859   3.1611 356.8026  1.70474231 61940"}}, "geometry": {"type": "Point", "coordinates": [76.74186999367025, -35.93495287883114]}}, {"type": "Feature", "properties": {"norad_id": 41241, "name": "IRNSS-1E", "group": "gnss", "lat": -19.24401344406232, "lon": -84.82447261727748, "alt_km": 35708.26085156119, "timestamp": "2025-12-13T05:42:57.799711+00:00", "meta": {"OBJECT_NAME": "IRNSS-1E", "OBJECT_ID": "2016-003A", "EPOCH": "2025-12-11T16:00:36.417888", "MEAN_MOTION": 1.00274353, "ECCENTRICITY": 0.00218711, "INCLINATION": 32.823, "RA_OF_ASC_NODE": 62.4692, "ARG_OF_PERICENTER": 187.0713, "MEAN_ANOMALY": 183.0302, "EPHEMERIS_TYPE": 0, "CLASSIFICATION_TYPE": "U", "NORAD_CAT_ID": 41241, "ELEMENT_SET_NO": 999, "REV_AT_EPOCH": 3620, "BSTAR": 0, "MEAN_MOTION_DOT": -3.05e-06, "MEAN_MOTION_DDOT": 0}, "tle": {"line1": "1 41241U 16003A   25345.66708817 -.00000305  00000+0  00000+0 0  9991", "line2": "2 41241  32.8230  62.4692 0021871 187.0713 183.0302  1.00274353 36200"}}, "geometry": {"type": "Point", "coordinates": [-84.82447261727748, -19.24401344406232]}}, {"type": "Feature", "properties": {"norad_id": 41328, "name": "GPS BIIF-12 (PRN 32)", "group": "gnss", "lat": -50.1456293277712, "lon": -27.493006774319536, "alt_km": 19944.655844651337, "timestamp": "2025-12-13T05:42:57.799723+00:00", "meta": {"OBJECT_NAME": "GPS BIIF-12 (PRN 32)", "OBJECT_ID": "2016-007A", "EPOCH": "2025-12-10T21:33:15.579936", "MEAN_MOTION": 2.00560768, "ECCENTRICITY": 0.0092092, "INCLINATION": 55.4051, "RA_OF_ASC_NODE": 96.9301, "ARG_OF_PERICENTER": 243.5329, "MEAN_ANOMALY": 115.5097, "EPHEMERIS_TYPE": 0, "CLASSIFICATION_TYPE": "U", "NORAD_CAT_ID": 41328, "ELEMENT_SET_NO": 999, "REV_AT_EPOCH": 7206, "BSTAR": 0, "MEAN_MOTION_DOT": 1e-08, "MEAN_MOTION_DDOT": 0}, "tle": {"line1": "1 41328U 16007A   25344.89809699  .00000001  00000+0  00000+0 0  9997", "line2": "2 41328  55.4051  96.9301 0092092 243.5329 115.5097  2.00560768 72065"}}, "geometry": {"type": "Point", "coordinates": [-27.493006774319536, -50.1456293277712]}}, {"type": "Feature", "properties": {"norad_id": 41330, "name": "COSMOS 2514 (751)", "group": "gnss", "lat": -10.161846889496859, "lon": 144.14370437646227, "alt_km": 19104.55629618348, "timestamp": "2025-12-13T05:42:57.799737+00:00", "meta": {"OBJECT_NAME": "COSMOS 2514 (751)", "OBJECT_ID": "2016-008A", "EPOCH": "2025-12-11T02:40:55.560288", "MEAN_MOTION": 2.13102604, "ECCENTRICITY": 0.0012161, "INCLINATION": 65.1347, "RA_OF_ASC_NODE": 319.4596, "ARG_OF_PERICENTER": 220.0573, "MEAN_ANOMALY": 139.8518, "EPHEMERIS_TYPE": 0, "CLASSIFICATION_TYPE": "U", "NORAD_CAT_ID": 41330, "ELEMENT_SET_NO": 999, "REV_AT_EPOCH": 7661, "BSTAR": 0, "MEAN_MOTION_DOT": -5.2e-07, "MEAN_MOTION_DDOT": 0}, "tle": {"line1": "1 41330U 16008A   25345.11175417 -.00000052  00000+0  00000+0 0  9998", "line2": "2 41330  65.1347 319.4596 0012161 220.0573 139.8518  2.13102604 76610"}}, "geometry": {"type": "Point", "coordinates": [144.14370437646227, -10.161846889496859]}}, {"type": "Feature", "properties": {"norad_id": 41384, "name": "IRNSS-1F", "group": "gnss", "lat": 4.812790453874186, "lon": -159.94733221687318, "alt_km": 35771.27355834557, "timestamp": "2025-12-13T05:42:57.799752+00:00", "meta": {"OBJECT_NAME": "IRNSS-1F", "OBJECT_ID": "2016-015A", "EPOCH": "2025-12-12T01:38:55.042368", "MEAN_MOTION": 1.00272169, "ECCENTRICITY": 0.00225429, "INCLINATION": 4.8789, "RA_OF_ASC_NODE": 101.3169, "ARG_OF_PERICENTER": 180.5882, "MEAN_ANOMALY": 216.205, "EPHEMERIS_TYPE": 0, "CLASSIFICATION_TYPE": "U", "NORAD_CAT_ID": 41384, "ELEMENT_SET_NO": 999, "REV_AT_EPOCH": 3579, "BSTAR": 0, "MEAN_MOTION_DOT": 1.68e-06, "MEAN_MOTION_DDOT": 0}, "tle": {"line1": "1 41384U 16015A   25346.06869262  .00000168  00000+0  00000+0 0  9995", "line2": "2 41384   4.8789 101.3169 0022542 180.5882 216.2050  1.00272169 35794"}}, "geometry": {"type": "Point", "coordinates": [-159.94733221687318, 4.812790453874186]}}, {"type": "Feature", "properties": {"norad_id": 41434, "name": "BEIDOU-2 IGSO-6 (C13)", "group": "gnss", "lat": -34.50820952295111, "lon": -116.6735983822427, "alt_km": 35530.79125429349, "timestamp": "2025-12-13T05:42:57.799765+00:00", "meta": {"OBJECT_NAME": "BEIDOU-2 IGSO-6 (C13)", "OBJECT_ID": "2016-021A", "EPOCH": "2025-12-11T15:29:12.615360", "MEAN_MOTION": 1.00293077, "ECCENTRICITY": 0.00608616, "INCLINATION": 59.9644, "RA_OF_ASC_NODE": 39.9082, "ARG_OF_PERICENTER": 229.9753, "MEAN_ANOMALY": 135.9177, "EPHEMERIS_TYPE": 0, "CLASSIFICATION_TYPE": "U", "NORAD_CAT_ID": 41434, "ELEMENT_SET_NO": 999, "REV_AT_EPOCH": 3560, "BSTAR": 0, "MEAN_MOTION_DOT": -1.62e-06, "MEAN_MOTION_DDOT": 0}, "tle": {"line1": "1 41434U 16021A   25345.64528490 -.00000162  00000+0  00000+0 0  9991", "line2": "2 41434  59.9644  39.9082 0060861 229.9753 135.9177  1.00293077 35600"}}, "geometry": {"type": "Point", "coordinates": [-116.6735983822427, -34.50820952295111]}}]}